[{"OBJECT_NAME":"STARLINK-1273","OBJECT_ID":"2020-019H","EPOCH":"2026-03-09T12:49:52.137408","MEAN_MOTION":15.44237041,"ECCENTRICITY":0.00021479,"INCLINATION":53.0509,"RA_OF_ASC_NODE":155.5528,"ARG_OF_PERICENTER":0.3875,"MEAN_ANOMALY":359.7131,"EPHEMERIS_TYPE":0,"CLASSIFICATION_TYPE":"U","NORAD_CAT_ID":45367,"ELEMENT_SET_NO":999,"REV_AT_EPOCH":32987,"BSTAR":0.0015436718,"MEAN_MOTION_DOT":0.00072311,"MEAN_MOTION_DDOT":0},{"OBJECT_NAME":"SITRO-AIS 38","OBJECT_ID":"2024-199BD","EPOCH":"2026-03-09T22:34:15.325824","MEAN_MOTION":15.44670327,"ECCENTRICITY":0.00093221,"INCLINATION":97.3106,"RA_OF_ASC_NODE":302.3939,"ARG_OF_PERICENTER":297.2453,"MEAN_ANOMALY":62.7846,"EPHEMERIS_TYPE":0,"CLASSIFICATION_TYPE":"U","NORAD_CAT_ID":61786,"ELEMENT_SET_NO":999,"REV_AT_EPOCH":11897,"BSTAR":0.00043805891,"MEAN_MOTION_DOT":0.00020392,"MEAN_MOTION_DDOT":0}]
